{
  "type": "FeatureCollection",
  "features": [
    {
      "type": "Feature",
      "properties": {
        "norad_id": 22490,
        "name": "SCD 1",
        "group": "resource",
        "lat": 23.250196579281777,
        "lon": -51.575489475060074,
        "alt_km": 703.362337108696,
        "timestamp": "2025-12-26T03:50:11.744037+00:00",
        "meta_object_name": "SCD 1",
        "meta_object_id": "1993-009B",
        "meta_epoch": "2025-12-25T16:00:22.325184",
        "meta_mean_motion": 14.46007346,
        "meta_eccentricity": 0.0042177,
        "meta_inclination": 24.9675,
        "meta_ra_of_asc_node": 198.8837,
        "meta_arg_of_pericenter": 101.5468,
        "meta_mean_anomaly": 317.8225,
        "meta_ephemeris_type": 0,
        "meta_classification_type": "U",
        "meta_norad_cat_id": 22490,
        "meta_element_set_no": 999,
        "meta_rev_at_epoch": 73597,
        "meta_bstar": 8.5981e-05,
        "meta_mean_motion_dot": 5e-06,
        "meta_mean_motion_ddot": 0,
        "tle_line1": "1 22490U 93009B   25359.66692506  .00000500  00000+0  85981-4 0  9991",
        "tle_line2": "2 22490  24.9675 198.8837 0042177 101.5468 317.8225 14.46007346735976"
      },
      "geometry": {
        "type": "Point",
        "coordinates": [
          -51.575489475060074,
          23.250196579281777
        ]
      }
    },
    {
      "type": "Feature",
      "properties": {
        "norad_id": 25397,
        "name": "TECHSAT 1B (GO-32)",
        "group": "resource",
        "lat": -5.748601584232542,
        "lon": 162.768936342087,
        "alt_km": 815.2330073242965,
        "timestamp": "2025-12-26T03:50:11.744079+00:00",
        "meta_object_name": "TECHSAT 1B (GO-32)",
        "meta_object_id": "1998-043D",
        "meta_epoch": "2025-12-25T20:13:26.539392",
        "meta_mean_motion": 14.24380564,
        "meta_eccentricity": 0.0001634,
        "meta_inclination": 98.9934,
        "meta_ra_of_asc_node": 343.3579,
        "meta_arg_of_pericenter": 35.6361,
        "meta_mean_anomaly": 324.4926,
        "meta_ephemeris_type": 0,
        "meta_classification_type": "U",
        "meta_norad_cat_id": 25397,
        "meta_element_set_no": 999,
        "meta_rev_at_epoch": 42665,
        "meta_bstar": 5.8223e-05,
        "meta_mean_motion_dot": 8.8e-07,
        "meta_mean_motion_ddot": 0,
        "tle_line1": "1 25397U 98043D   25359.84266828  .00000088  00000+0  58223-4 0  9997",
        "tle_line2": "2 25397  98.9934 343.3579 0001634  35.6361 324.4926 14.24380564426652"
      },
      "geometry": {
        "type": "Point",
        "coordinates": [
          162.768936342087,
          -5.748601584232542
        ]
      }
    },
    {
      "type": "Feature",
      "properties": {
        "norad_id": 25504,
        "name": "SCD 2",
        "group": "resource",
        "lat": 22.56375764073212,
        "lon": 176.04305404340948,
        "alt_km": 723.885396108516,
        "timestamp": "2025-12-26T03:50:11.744097+00:00",
        "meta_object_name": "SCD 2",
        "meta_object_id": "1998-060A",
        "meta_epoch": "2025-12-25T12:59:50.528256",
        "meta_mean_motion": 14.45430101,
        "meta_eccentricity": 0.0017068,
        "meta_inclination": 24.9956,
        "meta_ra_of_asc_node": 62.9589,
        "meta_arg_of_pericenter": 88.2247,
        "meta_mean_anomaly": 42.4879,
        "meta_ephemeris_type": 0,
        "meta_classification_type": "U",
        "meta_norad_cat_id": 25504,
        "meta_element_set_no": 999,
        "meta_rev_at_epoch": 43517,
        "meta_bstar": 7.5618e-05,
        "meta_mean_motion_dot": 4.53e-06,
        "meta_mean_motion_ddot": 0,
        "tle_line1": "1 25504U 98060A   25359.54155704  .00000453  00000+0  75618-4 0  9996",
        "tle_line2": "2 25504  24.9956  62.9589 0017068  88.2247  42.4879 14.45430101435172"
      },
      "geometry": {
        "type": "Point",
        "coordinates": [
          176.04305404340948,
          22.56375764073212
        ]
      }
    },
    {
      "type": "Feature",
      "properties": {
        "norad_id": 25757,
        "name": "DLR-TUBSAT",
        "group": "resource",
        "lat": -45.71363115492656,
        "lon": -5.926549786829105,
        "alt_km": 734.2535884305344,
        "timestamp": "2025-12-26T03:50:11.744111+00:00",
        "meta_object_name": "DLR-TUBSAT",
        "meta_object_id": "1999-029B",
        "meta_epoch": "2025-12-17T13:22:10.787520",
        "meta_mean_motion": 14.52359578,
        "meta_eccentricity": 0.00141996,
        "meta_inclination": 98.6566,
        "meta_ra_of_asc_node": 336.2196,
        "meta_arg_of_pericenter": 177.8976,
        "meta_mean_anomaly": 182.2281,
        "meta_ephemeris_type": 0,
        "meta_classification_type": "U",
        "meta_norad_cat_id": 25757,
        "meta_element_set_no": 999,
        "meta_rev_at_epoch": 40688,
        "meta_bstar": 3.7650132e-05,
        "meta_mean_motion_dot": 1.05e-06,
        "meta_mean_motion_ddot": 0,
        "tle_line1": "1 25757U 99029B   25351.55706930  .00000105  00000+0  37650-4 0  9996",
        "tle_line2": "2 25757  98.6566 336.2196 0014199 177.8976 182.2281 14.52359578406886"
      },
      "geometry": {
        "type": "Point",
        "coordinates": [
          -5.926549786829105,
          -45.71363115492656
        ]
      }
    },
    {
      "type": "Feature",
      "properties": {
        "norad_id": 25994,
        "name": "TERRA",
        "group": "resource",
        "lat": 67.11957141116575,
        "lon": 31.953722345757825,
        "alt_km": 681.2683845536421,
        "timestamp": "2025-12-26T03:50:11.744123+00:00",
        "meta_object_name": "TERRA",
        "meta_object_id": "1999-068A",
        "meta_epoch": "2025-12-25T19:36:13.166784",
        "meta_mean_motion": 14.60916091,
        "meta_eccentricity": 0.0003407,
        "meta_inclination": 97.9731,
        "meta_ra_of_asc_node": 51.0202,
        "meta_arg_of_pericenter": 68.4224,
        "meta_mean_anomaly": 357.0346,
        "meta_ephemeris_type": 0,
        "meta_classification_type": "U",
        "meta_norad_cat_id": 25994,
        "meta_element_set_no": 999,
        "meta_rev_at_epoch": 38429,
        "meta_bstar": 0.00010741,
        "meta_mean_motion_dot": 4.81e-06,
        "meta_mean_motion_ddot": 0,
        "tle_line1": "1 25994U 99068A   25359.81681906  .00000481  00000+0  10741-3 0  9992",
        "tle_line2": "2 25994  97.9731  51.0202 0003407  68.4224 357.0346 14.60916091384298"
      },
      "geometry": {
        "type": "Point",
        "coordinates": [
          31.953722345757825,
          67.11957141116575
        ]
      }
    },
    {
      "type": "Feature",
      "properties": {
        "norad_id": 27004,
        "name": "MAROC-TUBSAT",
        "group": "resource",
        "lat": 5.209848430699114,
        "lon": 167.93747683288407,
        "alt_km": 1011.779821983364,
        "timestamp": "2025-12-26T03:50:11.744136+00:00",
        "meta_object_name": "MAROC-TUBSAT",
        "meta_object_id": "2001-056D",
        "meta_epoch": "2025-12-25T10:32:57.324768",
        "meta_mean_motion": 13.70253508,
        "meta_eccentricity": 0.0019286,
        "meta_inclination": 99.7917,
        "meta_ra_of_asc_node": 168.1071,
        "meta_arg_of_pericenter": 226.4654,
        "meta_mean_anomaly": 187.434,
        "meta_ephemeris_type": 0,
        "meta_classification_type": "U",
        "meta_norad_cat_id": 27004,
        "meta_element_set_no": 999,
        "meta_rev_at_epoch": 20239,
        "meta_bstar": 2.8305e-05,
        "meta_mean_motion_dot": -2.2e-07,
        "meta_mean_motion_ddot": 0,
        "tle_line1": "1 27004U 01056D   25359.43955237 -.00000022  00000+0  28305-4 0  9993",
        "tle_line2": "2 27004  99.7917 168.1071 0019286 226.4654 187.4340 13.70253508202393"
      },
      "geometry": {
        "type": "Point",
        "coordinates": [
          167.93747683288407,
          5.209848430699114
        ]
      }
    },
    {
      "type": "Feature",
      "properties": {
        "norad_id": 27424,
        "name": "AQUA",
        "group": "resource",
        "lat": -12.467655057980469,
        "lon": -36.86809202342246,
        "alt_km": 692.3932933757242,
        "timestamp": "2025-12-26T03:50:11.744148+00:00",
        "meta_object_name": "AQUA",
        "meta_object_id": "2002-022A",
        "meta_epoch": "2025-12-24T19:18:33.414624",
        "meta_mean_motion": 14.61757572,
        "meta_eccentricity": 0.00018094,
        "meta_inclination": 98.4055,
        "meta_ra_of_asc_node": 319.881,
        "meta_arg_of_pericenter": 102.1365,
        "meta_mean_anomaly": 317.5475,
        "meta_ephemeris_type": 0,
        "meta_classification_type": "U",
        "meta_norad_cat_id": 27424,
        "meta_element_set_no": 999,
        "meta_rev_at_epoch": 25779,
        "meta_bstar": 0.00019560508,
        "meta_mean_motion_dot": 9.26e-06,
        "meta_mean_motion_ddot": 0,
        "tle_line1": "1 27424U 02022A   25358.80455341  .00000926  00000+0  19561-3 0  9999",
        "tle_line2": "2 27424  98.4055 319.8810 0001809 102.1365 317.5475 14.61757572257795"
      },
      "geometry": {
        "type": "Point",
        "coordinates": [
          -36.86809202342246,
          -12.467655057980469
        ]
      }
    }
  ]
}